STARLINK-31527          
1 59018U 24036W   26029.84589623  .00001815  00000+0  73401-4 0  9995
2 59018  53.1568 258.7280 0000893  58.1291 301.9797 15.30194807109375
STARLINK-31436          
1 59019U 24036X   26030.12720428 -.00000154  00000+0  69276-5 0  9991
2 59019  53.1568 257.6338 0001095 103.3425 256.7698 15.30190603109417
STARLINK-30996          
1 59023U 24038A   26030.28078223  .00000080  00000+0  12407-4 0  9994
2 59023  42.9964 243.9648 0000744 312.3625  47.7163 15.27580346110256
STARLINK-31006          
1 59024U 24038B   26029.80386806  .00004959  00000+0  18970-3 0  9999
2 59024  42.9969 196.2115 0001494 276.6212  83.4470 15.27563940109390
STARLINK-31178          
1 59025U 24038C   26030.29106622 -.00000860  00000+0 -21742-4 0  9992
2 59025  42.9995 244.0420 0000601 296.6625  63.4166 15.27571993108778
STARLINK-30863          
1 59027U 24038E   26029.98595961 -.00001224  00000+0 -34958-4 0  9994
2 59027  43.0041 246.0348 0001312 288.1847  71.8862 15.27596166108727
STARLINK-31206          
1 59028U 24038F   26030.09669404  .00001122  00000+0  50272-4 0  9995
2 59028  43.0046 179.9664 0001097 285.9434  74.1297 15.27580512109621
STARLINK-31224          
1 59029U 24038G   26029.93585518  .00002388  00000+0  96244-4 0  9994
2 59029  42.9990 245.6762 0001361 276.4531  83.6165 15.27583918108839
STARLINK-31186          
1 59030U 24038H   26030.29490657 -.00003427  00000+0 -11508-3 0  9992
2 59030  42.9987 244.0695 0000967 273.6539  86.4202 15.27583393108888
STARLINK-31211          
1 59031U 24038J   26029.99610363 -.00000384  00000+0 -44272-5 0  9991
2 59031  43.0024 245.2681 0001546 271.3850  88.6824 15.27590802108737
STARLINK-30862          
1 59032U 24038K   26029.97829166 -.00002179  00000+0 -69682-4 0  9998
2 59032  43.0003 234.7919 0001496 265.6047  94.4634 15.27576511108858
STARLINK-31210          
1 59033U 24038L   26029.89151716  .00003295  00000+0  12921-3 0  9990
2 59033  42.9998 242.7571 0001110 272.3302  87.7423 15.27580778108924
STARLINK-31231          
1 59034U 24038M   26030.27998329 -.00000588  00000+0 -11851-4 0  9990
2 59034  42.9984 240.5114 0000702 292.4231  67.6546 15.27579421108813
STARLINK-31207          
1 59035U 24038N   26030.27613157 -.00004042  00000+0 -13740-3 0  9991
2 59035  43.0019 240.4793 0002397 257.7246 102.3337 15.27580207108986
STARLINK-31217          
1 59036U 24038P   26029.60973040 -.00000681  00000+0 -15241-4 0  9991
2 59036  43.0022 149.9238 0000604 246.9113 113.1675 15.27573441109966
STARLINK-31208          
1 59037U 24038Q   26029.98981265  .00005006  00000+0  19123-3 0  9997
2 59037  42.9992 246.0448 0001380 262.0280  98.0415 15.27596140108894
