[{"OBJECT_NAME":"STARLINK-31527","OBJECT_ID":"2024-036W","EPOCH":"2026-01-29T20:18:05.434272","MEAN_MOTION":15.30194807,"ECCENTRICITY":8.935e-5,"INCLINATION":53.1568,"RA_OF_ASC_NODE":258.728,"ARG_OF_PERICENTER":58.1291,"MEAN_ANOMALY":301.9797,"EPHEMERIS_TYPE":0,"CLASSIFICATION_TYPE":"U","NORAD_CAT_ID":59018,"ELEMENT_SET_NO":999,"REV_AT_EPOCH":10937,"BSTAR":7.3400512e-5,"MEAN_MOTION_DOT":1.815e-5,"MEAN_MOTION_DDOT":0},{"OBJECT_NAME":"STARLINK-31436","OBJECT_ID":"2024-036X","EPOCH":"2026-01-30T03:03:10.449792","MEAN_MOTION":15.30190603,"ECCENTRICITY":0.00010955,"INCLINATION":53.1568,"RA_OF_ASC_NODE":257.6338,"ARG_OF_PERICENTER":103.3425,"MEAN_ANOMALY":256.7698,"EPHEMERIS_TYPE":0,"CLASSIFICATION_TYPE":"U","NORAD_CAT_ID":59019,"ELEMENT_SET_NO":999,"REV_AT_EPOCH":10941,"BSTAR":6.927567e-6,"MEAN_MOTION_DOT":-1.54e-6,"MEAN_MOTION_DDOT":0},{"OBJECT_NAME":"STARLINK-30996","OBJECT_ID":"2024-038A","EPOCH":"2026-01-30T06:44:19.584672","MEAN_MOTION":15.27580346,"ECCENTRICITY":7.444e-5,"INCLINATION":42.9964,"RA_OF_ASC_NODE":243.9648,"ARG_OF_PERICENTER":312.3625,"MEAN_ANOMALY":47.7163,"EPHEMERIS_TYPE":0,"CLASSIFICATION_TYPE":"U","NORAD_CAT_ID":59023,"ELEMENT_SET_NO":999,"REV_AT_EPOCH":11025,"BSTAR":1.2407114e-5,"MEAN_MOTION_DOT":8.0e-7,"MEAN_MOTION_DDOT":0},{"OBJECT_NAME":"STARLINK-31006","OBJECT_ID":"2024-038B","EPOCH":"2026-01-29T19:17:34.200384","MEAN_MOTION":15.2756394,"ECCENTRICITY":0.00014941,"INCLINATION":42.9969,"RA_OF_ASC_NODE":196.2115,"ARG_OF_PERICENTER":276.6212,"MEAN_ANOMALY":83.447,"EPHEMERIS_TYPE":0,"CLASSIFICATION_TYPE":"U","NORAD_CAT_ID":59024,"ELEMENT_SET_NO":999,"REV_AT_EPOCH":10939,"BSTAR":0.00018970165,"MEAN_MOTION_DOT":4.959e-5,"MEAN_MOTION_DDOT":0},{"OBJECT_NAME":"STARLINK-31178","OBJECT_ID":"2024-038C","EPOCH":"2026-01-30T06:59:08.121408","MEAN_MOTION":15.27571993,"ECCENTRICITY":6.01e-5,"INCLINATION":42.9995,"RA_OF_ASC_NODE":244.042,"ARG_OF_PERICENTER":296.6625,"MEAN_ANOMALY":63.4166,"EPHEMERIS_TYPE":0,"CLASSIFICATION_TYPE":"U","NORAD_CAT_ID":59025,"ELEMENT_SET_NO":999,"REV_AT_EPOCH":10877,"BSTAR":-2.1741699e-5,"MEAN_MOTION_DOT":-8.6e-6,"MEAN_MOTION_DDOT":0},{"OBJECT_NAME":"STARLINK-30863","OBJECT_ID":"2024-038E","EPOCH":"2026-01-29T23:39:46.910304","MEAN_MOTION":15.27596166,"ECCENTRICITY":0.00013129,"INCLINATION":43.0041,"RA_OF_ASC_NODE":246.0348,"ARG_OF_PERICENTER":288.1847,"MEAN_ANOMALY":71.8862,"EPHEMERIS_TYPE":0,"CLASSIFICATION_TYPE":"U","NORAD_CAT_ID":59027,"ELEMENT_SET_NO":999,"REV_AT_EPOCH":10872,"BSTAR":-3.4958397e-5,"MEAN_MOTION_DOT":-1.224e-5,"MEAN_MOTION_DDOT":0},{"OBJECT_NAME":"STARLINK-31206","OBJECT_ID":"2024-038F","EPOCH":"2026-01-30T02:19:14.365056","MEAN_MOTION":15.27580512,"ECCENTRICITY":0.00010978,"INCLINATION":43.0046,"RA_OF_ASC_NODE":179.9664,"ARG_OF_PERICENTER":285.9434,"MEAN_ANOMALY":74.1297,"EPHEMERIS_TYPE":0,"CLASSIFICATION_TYPE":"U","NORAD_CAT_ID":59028,"ELEMENT_SET_NO":999,"REV_AT_EPOCH":10962,"BSTAR":5.0272495e-5,"MEAN_MOTION_DOT":1.122e-5,"MEAN_MOTION_DDOT":0},{"OBJECT_NAME":"STARLINK-31224","OBJECT_ID":"2024-038G","EPOCH":"2026-01-29T22:27:37.887552","MEAN_MOTION":15.27583918,"ECCENTRICITY":0.00013618,"INCLINATION":42.999,"RA_OF_ASC_NODE":245.6762,"ARG_OF_PERICENTER":276.4531,"MEAN_ANOMALY":83.6165,"EPHEMERIS_TYPE":0,"CLASSIFICATION_TYPE":"U","NORAD_CAT_ID":59029,"ELEMENT_SET_NO":999,"REV_AT_EPOCH":10883,"BSTAR":9.6243631e-5,"MEAN_MOTION_DOT":2.388e-5,"MEAN_MOTION_DDOT":0},{"OBJECT_NAME":"STARLINK-31186","OBJECT_ID":"2024-038H","EPOCH":"2026-01-30T07:04:39.927648","MEAN_MOTION":15.27583393,"ECCENTRICITY":9.675e-5,"INCLINATION":42.9987,"RA_OF_ASC_NODE":244.0695,"ARG_OF_PERICENTER":273.6539,"MEAN_ANOMALY":86.4202,"EPHEMERIS_TYPE":0,"CLASSIFICATION_TYPE":"U","NORAD_CAT_ID":59030,"ELEMENT_SET_NO":999,"REV_AT_EPOCH":10888,"BSTAR":-0.00011507723,"MEAN_MOTION_DOT":-3.427e-5,"MEAN_MOTION_DDOT":0},{"OBJECT_NAME":"STARLINK-31211","OBJECT_ID":"2024-038J","EPOCH":"2026-01-29T23:54:23.353632","MEAN_MOTION":15.27590802,"ECCENTRICITY":0.00015467,"INCLINATION":43.0024,"RA_OF_ASC_NODE":245.2681,"ARG_OF_PERICENTER":271.385,"MEAN_ANOMALY":88.6824,"EPHEMERIS_TYPE":0,"CLASSIFICATION_TYPE":"U","NORAD_CAT_ID":59031,"ELEMENT_SET_NO":999,"REV_AT_EPOCH":10873,"BSTAR":-4.427187e-6,"MEAN_MOTION_DOT":-3.84e-6,"MEAN_MOTION_DDOT":0},{"OBJECT_NAME":"STARLINK-30862","OBJECT_ID":"2024-038K","EPOCH":"2026-01-29T23:28:44.399424","MEAN_MOTION":15.27576511,"ECCENTRICITY":0.00014968,"INCLINATION":43.0003,"RA_OF_ASC_NODE":234.7919,"ARG_OF_PERICENTER":265.6047,"MEAN_ANOMALY":94.4634,"EPHEMERIS_TYPE":0,"CLASSIFICATION_TYPE":"U","NORAD_CAT_ID":59032,"ELEMENT_SET_NO":999,"REV_AT_EPOCH":10885,"BSTAR":-6.9681914e-5,"MEAN_MOTION_DOT":-2.179e-5,"MEAN_MOTION_DDOT":0},{"OBJECT_NAME":"STARLINK-31210","OBJECT_ID":"2024-038L","EPOCH":"2026-01-29T21:23:47.082624","MEAN_MOTION":15.27580778,"ECCENTRICITY":0.00011105,"INCLINATION":42.9998,"RA_OF_ASC_NODE":242.7571,"ARG_OF_PERICENTER":272.3302,"MEAN_ANOMALY":87.7423,"EPHEMERIS_TYPE":0,"CLASSIFICATION_TYPE":"U","NORAD_CAT_ID":59033,"ELEMENT_SET_NO":999,"REV_AT_EPOCH":10892,"BSTAR":0.00012921109,"MEAN_MOTION_DOT":3.295e-5,"MEAN_MOTION_DDOT":0},{"OBJECT_NAME":"STARLINK-31231","OBJECT_ID":"2024-038M","EPOCH":"2026-01-30T06:43:10.556256","MEAN_MOTION":15.27579421,"ECCENTRICITY":7.024e-5,"INCLINATION":42.9984,"RA_OF_ASC_NODE":240.5114,"ARG_OF_PERICENTER":292.4231,"MEAN_ANOMALY":67.6546,"EPHEMERIS_TYPE":0,"CLASSIFICATION_TYPE":"U","NORAD_CAT_ID":59034,"ELEMENT_SET_NO":999,"REV_AT_EPOCH":10881,"BSTAR":-1.1850663e-5,"MEAN_MOTION_DOT":-5.88e-6,"MEAN_MOTION_DDOT":0},{"OBJECT_NAME":"STARLINK-31207","OBJECT_ID":"2024-038N","EPOCH":"2026-01-30T06:37:37.767648","MEAN_MOTION":15.27580207,"ECCENTRICITY":0.00023972,"INCLINATION":43.0019,"RA_OF_ASC_NODE":240.4793,"ARG_OF_PERICENTER":257.7246,"MEAN_ANOMALY":102.3337,"EPHEMERIS_TYPE":0,"CLASSIFICATION_TYPE":"U","NORAD_CAT_ID":59035,"ELEMENT_SET_NO":999,"REV_AT_EPOCH":10898,"BSTAR":-0.0001373988,"MEAN_MOTION_DOT":-4.042e-5,"MEAN_MOTION_DDOT":0},{"OBJECT_NAME":"STARLINK-31217","OBJECT_ID":"2024-038P","EPOCH":"2026-01-29T14:38:00.706560","MEAN_MOTION":15.27573441,"ECCENTRICITY":6.042e-5,"INCLINATION":43.0022,"RA_OF_ASC_NODE":149.9238,"ARG_OF_PERICENTER":246.9113,"MEAN_ANOMALY":113.1675,"EPHEMERIS_TYPE":0,"CLASSIFICATION_TYPE":"U","NORAD_CAT_ID":59036,"ELEMENT_SET_NO":999,"REV_AT_EPOCH":10996,"BSTAR":-1.524096e-5,"MEAN_MOTION_DOT":-6.81e-6,"MEAN_MOTION_DDOT":0},{"OBJECT_NAME":"STARLINK-31208","OBJECT_ID":"2024-038Q","EPOCH":"2026-01-29T23:45:19.812960","MEAN_MOTION":15.2759614,"ECCENTRICITY":0.00013807,"INCLINATION":42.9992,"RA_OF_ASC_NODE":246.0448,"ARG_OF_PERICENTER":262.028,"MEAN_ANOMALY":98.0415,"EPHEMERIS_TYPE":0,"CLASSIFICATION_TYPE":"U","NORAD_CAT_ID":59037,"ELEMENT_SET_NO":999,"REV_AT_EPOCH":10889,"BSTAR":0.0001912323,"MEAN_MOTION_DOT":5.006e-5,"MEAN_MOTION_DDOT":0}]
